SHIJIAN-15 (SJ-15)
1 39210U 13037C   25352.60864825  .00000675  00000+0  11775-3 0  9996
2 39210  98.1009 351.4386 0006461  15.4702 344.6701 14.71171846667778